{
    "links": {
        "self": "http://www.neowsapp.com/rest/v1/neo/3726044?api_key=iIulBulltgU6a56xZRHN4H3l9WmuAYTsLGpBGhQ2"
    },
    "id": "3726044",
    "neo_reference_id": "3726044",
    "name": "(2015 PL229)",
    "designation": "2015 PL229",
    "nasa_jpl_url": "http://ssd.jpl.nasa.gov/sbdb.cgi?sstr=3726044",
    "absolute_magnitude_h": 26.8,
    "estimated_diameter": {
        "kilometers": {
            "estimated_diameter_min": 0.0116025908,
            "estimated_diameter_max": 0.0259441818
        },
        "meters": {
            "estimated_diameter_min": 11.6025908209,
            "estimated_diameter_max": 25.9441817907
        },
        "miles": {
            "estimated_diameter_min": 0.0072095135,
            "estimated_diameter_max": 0.0161209622
        },
        "feet": {
            "estimated_diameter_min": 38.066244069,
            "estimated_diameter_max": 85.1187093863
        }
    },
    "is_potentially_hazardous_asteroid": false,
    "close_approach_data": [
        {
            "close_approach_date": "2004-09-16",
            "close_approach_date_full": "2004-Sep-16 21:39",
            "epoch_date_close_approach": 1095370740000,
            "relative_velocity": {
                "kilometers_per_second": "16.2235224959",
                "kilometers_per_hour": "58404.6809851529",
                "miles_per_hour": "36290.3974710246"
            },
            "miss_distance": {
                "astronomical": "0.4735560176",
                "lunar": "184.2132908464",
                "kilometers": "70842971.558642512",
                "miles": "44019781.3021581856"
            },
            "orbiting_body": "Earth"
        },
        {
            "close_approach_date": "2015-08-06",
            "close_approach_date_full": "2015-Aug-06 13:19",
            "epoch_date_close_approach": 1438867140000,
            "relative_velocity": {
                "kilometers_per_second": "3.3479272858",
                "kilometers_per_hour": "12052.5382288588",
                "miles_per_hour": "7488.9785455928"
            },
            "miss_distance": {
                "astronomical": "0.0571618383",
                "lunar": "22.2359550987",
                "kilometers": "8551289.254964421",
                "miles": "5313524.7516181698"
            },
            "orbiting_body": "Earth"
        },
        {
            "close_approach_date": "2026-06-21",
            "close_approach_date_full": "2026-Jun-21 10:27",
            "epoch_date_close_approach": 1782037620000,
            "relative_velocity": {
                "kilometers_per_second": "16.5576207327",
                "kilometers_per_hour": "59607.4346378896",
                "miles_per_hour": "37037.741817082"
            },
            "miss_distance": {
                "astronomical": "0.4827577435",
                "lunar": "187.7927622215",
                "kilometers": "72219530.153606345",
                "miles": "44875135.149783761"
            },
            "orbiting_body": "Earth"
        },
        {
            "close_approach_date": "2086-08-02",
            "close_approach_date_full": "2086-Aug-02 00:53",
            "epoch_date_close_approach": 3679087980000,
            "relative_velocity": {
                "kilometers_per_second": "3.512759996",
                "kilometers_per_hour": "12645.9359856053",
                "miles_per_hour": "7857.6928350557"
            },
            "miss_distance": {
                "astronomical": "0.0619039527",
                "lunar": "24.0806376003",
                "kilometers": "9260699.468500749",
                "miles": "5754331.8178143762"
            },
            "orbiting_body": "Earth"
        },
        {
            "close_approach_date": "2146-06-23",
            "close_approach_date_full": "2146-Jun-23 13:18",
            "epoch_date_close_approach": 5569046280000,
            "relative_velocity": {
                "kilometers_per_second": "16.74733998",
                "kilometers_per_hour": "60290.4239279143",
                "miles_per_hour": "37462.1248012088"
            },
            "miss_distance": {
                "astronomical": "0.4890527999",
                "lunar": "190.2415391611",
                "kilometers": "73161257.182576213",
                "miles": "45460297.1912612194"
            },
            "orbiting_body": "Earth"
        }
    ],
    "orbital_data": {
        "orbit_id": "10",
        "orbit_determination_date": "2017-04-06 08:32:26",
        "first_observation_date": "2015-08-10",
        "last_observation_date": "2015-09-04",
        "data_arc_in_days": 25,
        "observations_used": 45,
        "orbit_uncertainty": "7",
        "minimum_orbit_intersection": ".0579148",
        "jupiter_tisserand_invariant": "4.517",
        "epoch_osculation": "2459000.5",
        "eccentricity": ".2816899193423427",
        "semi_major_axis": "1.490894718470794",
        "inclination": "1.67736831908348",
        "ascending_node_longitude": "331.1314358683571",
        "orbital_period": "664.9192268821588",
        "perihelion_distance": "1.070924705476832",
        "perihelion_argument": "344.1040791787536",
        "aphelion_distance": "1.910864731464757",
        "perihelion_time": "2459237.394283605605",
        "mean_anomaly": "231.740899269962",
        "mean_motion": ".5414191460338106",
        "equinox": "J2000",
        "orbit_class": {
            "orbit_class_type": "AMO",
            "orbit_class_description": "Near-Earth asteroid orbits similar to that of 1221 Amor",
            "orbit_class_range": "1.017 AU < q (perihelion) < 1.3 AU"
        }
    },
    "is_sentry_object": false
}